NORAD_CAT_ID,OBJECT_NAME,OBJECT_TYPE,EPOCH,MEAN_MOTION,ECCENTRICITY,INCLINATION,RA_OF_ASC_NODE,ARG_OF_PERICENTER,MEAN_ANOMALY,BSTAR,MEAN_MOTION_DOT,MEAN_MOTION_DDOT,TLE_LINE0,TLE_LINE1,TLE_LINE2,SEMIMAJOR_AXIS,PERIOD,APOGEE,PERIGEE,DECAYED
54157.0,STARLINK-5290,PAYLOAD,2023-04-07 01:54:52,15.08835137,0.0001368,53.2151,126.8619,94.4683,265.6466,0.00023689,3.484e-05,0.0,0 STARLINK-5290,1 54157U 22141A   23097.07977355  .00003484  00000-0  23689-3 0  9996,2 54157  53.2151 126.8619 0001368  94.4683 265.6466 15.08835137 24547,6917.895,95.438,540.707,538.814,0.0
54157.0,STARLINK-5290,PAYLOAD,2023-04-07 13:02:34,15.08845674,0.0001582,53.2152,124.781,87.068,273.0493,0.00040357,6.142e-05,0.0,0 STARLINK-5290,1 54157U 22141A   23097.54345223  .00006142  00000-0  40357-3 0  9996,2 54157  53.2152 124.7810 0001582  87.0680 273.0493 15.08845674 24619,6917.863,95.437,540.822,538.634,0.0
54157.0,STARLINK-5290,PAYLOAD,2023-04-08 01:45:39,15.08853068,0.0001434,53.2144,122.4021,87.8028,272.3128,0.00051112,7.859e-05,0.0,0 STARLINK-5290,1 54157U 22141A   23098.07336823  .00007859  00000-0  51112-3 0  9998,2 54157  53.2144 122.4021 0001434  87.8028 272.3128 15.08853068 24690,6917.84,95.437,540.697,538.713,0.0
54157.0,STARLINK-5290,PAYLOAD,2023-04-08 12:53:20,15.08871124,0.0001485,53.2144,120.3208,83.8319,276.2842,0.00065129,0.00010101,0.0,0 STARLINK-5290,1 54157U 22141A   23098.53703893  .00010101  00000-0  65129-3 0  9991,2 54157  53.2144 120.3208 0001485  83.8319 276.2842 15.08871124 24766,6917.785,95.436,540.678,538.623,0.0
54157.0,STARLINK-5290,PAYLOAD,2023-04-09 06:22:34,15.08847066,0.0001416,53.2144,117.0491,99.4915,260.6237,-2.5312e-05,-6.91e-06,0.0,0 STARLINK-5290,1 54157U 22141A   23099.26567988 -.00000691  00000-0 -25312-4 0  9991,2 54157  53.2144 117.0491 0001416  99.4915 260.6237 15.08847066 24877,6917.859,95.437,540.703,538.744,0.0
54157.0,STARLINK-5290,PAYLOAD,2023-04-09 11:08:44,15.08845116,0.0001365,53.2148,116.1576,94.4736,265.6412,-1.4442e-06,-3.11e-06,0.0,0 STARLINK-5290,1 54157U 22141A   23099.46440010 -.00000311  00000-0 -14442-5 0  9991,2 54157  53.2148 116.1576 0001365  94.4736 265.6412 15.08845116 24902,6917.865,95.437,540.674,538.785,0.0
54157.0,STARLINK-5290,PAYLOAD,2023-04-09 17:30:16,15.08843845,0.0001349,53.2147,114.9684,93.7446,266.37,7.097e-05,8.42e-06,0.0,0 STARLINK-5290,1 54157U 22141A   23099.72936031  .00000842  00000-0  70970-4 0  9997,2 54157  53.2147 114.9684 0001349  93.7446 266.3700 15.08843845 24948,6917.869,95.437,540.667,538.8,0.0
54157.0,STARLINK-5290,PAYLOAD,2023-04-10 07:48:44,15.08847347,0.0001411,53.2151,112.2921,96.4292,263.6861,0.00022143,3.239e-05,0.0,0 STARLINK-5290,1 54157U 22141A   23100.32551992  .00003239  00000-0  22143-3 0  9996,2 54157  53.2151 112.2921 0001411  96.4292 263.6861 15.08847347 25037,6917.858,95.437,540.699,538.747,0.0
54157.0,STARLINK-5290,PAYLOAD,2023-04-10 12:34:54,15.08849376,0.0001474,53.2155,111.3993,103.7442,256.3714,0.00031165,4.677e-05,0.0,0 STARLINK-5290,1 54157U 22141A   23100.52423868  .00004677  00000-0  31165-3 0  9999,2 54157  53.2155 111.3993 0001474 103.7442 256.3714 15.08849376 25061,6917.852,95.437,540.736,538.697,0.0
54157.0,STARLINK-5290,PAYLOAD,2023-04-10 17:21:03,15.088454,0.0001467,53.2153,110.5068,91.7938,268.3222,0.00013293,1.829e-05,0.0,0 STARLINK-5290,1 54157U 22141A   23100.72295914  .00001829  00000-0  13293-3 0  9998,2 54157  53.2153 110.5068 0001467  91.7938 268.3222 15.08845400 25095,6917.864,95.437,540.744,538.714,0.0
54157.0,STARLINK-5290,PAYLOAD,2023-04-10 23:42:36,15.08839372,0.0001357,53.215,109.3182,99.8789,260.2356,0.00011122,1.483e-05,0.0,0 STARLINK-5290,1 54157U 22141A   23100.98792240  .00001483  00000-0  11122-3 0  9995,2 54157  53.2150 109.3182 0001357  99.8789 260.2356 15.08839372 25131,6917.882,95.438,540.686,538.809,0.0
54157.0,STARLINK-5290,PAYLOAD,2023-04-11 09:14:55,15.0884264,0.0001394,53.2151,107.534,98.9799,261.135,0.00014228,1.977e-05,0.0,0 STARLINK-5290,1 54157U 22141A   23101.38536126  .00001977  00000-0  14228-3 0  9997,2 54157  53.2151 107.5340 0001394  98.9799 261.1350 15.08842640 25192,6917.872,95.437,540.702,538.773,0.0
54157.0,STARLINK-5290,PAYLOAD,2023-04-11 17:11:51,15.08840765,0.0001382,53.2154,106.0473,94.7065,265.4085,0.00010132,1.325e-05,0.0,0 STARLINK-5290,1 54157U 22141A   23101.71656255  .00001325  00000-0  10132-3 0  9997,2 54157  53.2154 106.0473 0001382  94.7065 265.4085 15.08840765 25247,6917.878,95.438,540.699,538.787,0.0
54157.0,STARLINK-5290,PAYLOAD,2023-04-12 04:19:33,15.08835599,0.0001433,53.2159,103.966,99.6811,260.4343,-7.3606e-06,-4.05e-06,0.0,0 STARLINK-5290,1 54157U 22141A   23102.18024508 -.00000405  00000-0 -73606-5 0  9996,2 54157  53.2159 103.9660 0001433  99.6811 260.4343 15.08835599 25315,6917.894,95.438,540.75,538.768,0.0
54157.0,STARLINK-5290,PAYLOAD,2023-04-12 07:30:19,15.08835988,0.0001398,53.2157,103.3712,96.4843,263.6309,-2.1303e-05,-6.27e-06,0.0,0 STARLINK-5290,1 54157U 22141A   23102.31272516 -.00000627  00000-0 -21303-4 0  9997,2 54157  53.2157 103.3712 0001398  96.4843 263.6309 15.08835988 25336,6917.893,95.438,540.725,538.791,0.0
54157.0,STARLINK-5290,PAYLOAD,2023-04-13 08:56:29,15.08846844,0.0001442,53.2162,98.6139,93.3806,266.7351,0.00021432,3.125e-05,0.0,0 STARLINK-5290,1 54157U 22141A   23103.37256313  .00003125  00000-0  21432-3 0  9997,2 54157  53.2162  98.6139 0001442  93.3806 266.7351 15.08846844 25497,6917.859,95.437,540.722,538.727,0.0
54157.0,STARLINK-5290,PAYLOAD,2023-04-14 05:36:30,15.08837131,0.0001417,53.2159,94.7472,94.5086,265.6068,0.00010585,1.397e-05,0.0,0 STARLINK-5290,1 54157U 22141A   23104.23369022  .00001397  00000-0  10585-3 0  9991,2 54157  53.2159  94.7472 0001417  94.5086 265.6068 15.08837131 25622,6917.889,95.438,540.734,538.774,0.0
54157.0,STARLINK-5290,PAYLOAD,2023-04-14 08:47:16,15.08840228,0.000141,53.2157,94.151,94.9855,265.1298,0.00013256,1.822e-05,0.0,0 STARLINK-5290,1 54157U 22141A   23104.36616869  .00001822  00000-0  13256-3 0  9990,2 54157  53.2157  94.1510 0001410  94.9855 265.1298 15.08840228 25641,6917.88,95.438,540.72,538.769,0.0
54157.0,STARLINK-5290,PAYLOAD,2023-04-15 05:27:17,15.08851601,0.0001395,53.2151,90.2845,101.146,258.9689,0.00031438,4.721e-05,0.0,0 STARLINK-5290,1 54157U 22141A   23105.22728355  .00004721  00000-0  31438-3 0  9993,2 54157  53.2151  90.2845 0001395 101.1460 258.9689 15.08851601 25773,6917.845,95.437,540.675,538.745,0.0
54157.0,STARLINK-5290,PAYLOAD,2023-04-15 08:38:03,15.08852961,0.0001393,53.2154,89.6901,101.1235,258.9914,0.00034011,5.131e-05,0.0,0 STARLINK-5290,1 54157U 22141A   23105.35976271  .00005131  00000-0  34011-3 0  9995,2 54157  53.2154  89.6901 0001393 101.1235 258.9914 15.08852961 25792,6917.841,95.437,540.669,538.742,0.0
54157.0,STARLINK-5290,PAYLOAD,2023-04-16 08:28:51,15.08841409,0.0001355,53.2154,85.2301,93.6303,266.4844,0.00010663,1.41e-05,0.0,0 STARLINK-5290,1 54157U 22141A   23106.35336843  .00001410  00000-0  10663-3 0  9994,2 54157  53.2154  85.2301 0001355  93.6303 266.4844 15.08841409 25945,6917.876,95.437,540.678,538.804,0.0
54157.0,STARLINK-5290,PAYLOAD,2023-04-17 05:08:51,15.08844811,0.000118,53.2151,81.3642,88.5374,271.5753,0.00019599,2.833e-05,0.0,0 STARLINK-5290,1 54157U 22141A   23107.21448769  .00002833  00000-0  19599-3 0  9998,2 54157  53.2151  81.3642 0001180  88.5374 271.5753 15.08844811 26075,6917.866,95.437,540.547,538.914,0.0
54157.0,STARLINK-5290,PAYLOAD,2023-04-17 08:19:37,15.08848328,0.0001244,53.2156,80.77,89.3115,270.8019,0.00027125,4.033e-05,0.0,0 STARLINK-5290,1 54157U 22141A   23107.34696673  .00004033  00000-0  27125-3 0  9999,2 54157  53.2156  80.7700 0001244  89.3115 270.8019 15.08848328 26097,6917.855,95.437,540.581,538.859,0.0
54157.0,STARLINK-5290,PAYLOAD,2023-04-18 04:59:38,15.08845985,0.0001119,53.2155,76.904,90.5672,269.5448,0.00023817,3.505e-05,0.0,0 STARLINK-5290,1 54157U 22141A   23108.20808867  .00003505  00000-0  23817-3 0  9992,2 54157  53.2155  76.9040 0001119  90.5672 269.5448 15.08845985 26225,6917.862,95.437,540.501,538.953,0.0
54157.0,STARLINK-5290,PAYLOAD,2023-04-18 06:35:01,15.08847775,0.0001156,53.2155,76.6064,92.8916,267.2209,0.00026835,3.986e-05,0.0,0 STARLINK-5290,1 54157U 22141A   23108.27432827  .00003986  00000-0  26835-3 0  9994,2 54157  53.2155  76.6064 0001156  92.8916 267.2209 15.08847775 26235,6917.857,95.437,540.521,538.922,0.0
54157.0,STARLINK-5290,PAYLOAD,2023-04-19 04:50:26,15.08839221,0.0001208,53.2167,72.4442,94.636,265.477,4.6716e-05,4.56e-06,0.0,0 STARLINK-5290,1 54157U 22141A   23109.20169306  .00000456  00000-0  46716-4 0  9997,2 54157  53.2167  72.4442 0001208  94.6360 265.4770 15.08839221 26378,6917.883,95.438,540.583,538.912,0.0
54157.0,STARLINK-5290,PAYLOAD,2023-04-19 08:01:12,15.08839997,0.0001158,53.2167,71.8494,92.5985,267.514,8.9095e-05,1.13e-05,0.0,0 STARLINK-5290,1 54157U 22141A   23109.33417339  .00001130  00000-0  89095-4 0  9990,2 54157  53.2167  71.8494 0001158  92.5985 267.5140 15.08839997 26398,6917.88,95.438,540.546,538.944,0.0
54157.0,STARLINK-5290,PAYLOAD,2023-04-20 06:16:36,15.08845204,0.0001139,53.2159,67.6861,95.2145,264.8977,0.00021368,3.115e-05,0.0,0 STARLINK-5290,1 54157U 22141A   23110.26153451  .00003115  00000-0  21368-3 0  9999,2 54157  53.2159  67.6861 0001139  95.2145 264.8977 15.08845204 26539,6917.864,95.437,540.517,538.942,0.0
54157.0,STARLINK-5290,PAYLOAD,2023-04-21 06:07:24,15.08834942,0.0001242,53.2166,63.2235,92.3725,267.7409,9.2609e-05,1.186e-05,0.0,0 STARLINK-5290,1 54157U 22141A   23111.25514314  .00001186  00000-0  92609-4 0  9991,2 54157  53.2166  63.2235 0001242  92.3725 267.7409 15.08834942 26686,6917.896,95.438,540.62,538.902,0.0
54157.0,STARLINK-5290,PAYLOAD,2023-04-21 14:04:20,15.08840504,0.0001266,53.217,61.7385,89.527,270.5867,0.00019683,2.846e-05,0.0,0 STARLINK-5290,1 54157U 22141A   23111.58634295  .00002846  00000-0  19683-3 0  9992,2 54157  53.2170  61.7385 0001266  89.5270 270.5867 15.08840504 26736,6917.879,95.438,540.62,538.868,0.0
